#dP2023 12  3  0  0  0.00000000      96 __u+U IGS20 EXT  IAC
## 2291      0.00000000   900.00000000 60281 0.0000000000000
+  119   C06C07C08C09C10C11C12C13C14C16C19C20C21C22C23C24C25
+        C26C27C28C29C30C32C33C34C35C36C37C38C39C40C41C42C43
+        C44C45C46E02E03E04E05E07E08E09E10E11E12E13E15E18E19
+        E21E24E25E26E27E30E31E33E34E36G01G02G03G04G05G06G07
+        G08G09G10G11G12G13G14G15G16G17G18G19G20G21G22G23G24
+        G25G26G27G28G29G30G31G32J02J03J04R01R02R03R04R05R07
+        R08R09R11R12R13R14R15R16R17R18R19R20R21R22R24R25R26
++         9  9 14  8 12 11  7 11  9  9  9  9 13  8  9  8 10
++         9  8  8  9 10 11 10  9  9  8  9 11  9  9  9  7 11
++        10  9  8  8  8  9  8  8  7  8  8  8  8  9  8  8  8
++        11  8  9  8 11  8  8  9  8  8  9  9  8  7  8  9  7
++         9  7  8  8  7  7  9  7  7  8  8  8  8  8  7  8  7
++         9  8  8  0  8  8  7  7  8 10  9  9 10  8  9  8 10
++         8  9  9  9 10  7  8  7  9  7 10  9  9  8  9  8 10
%c M  cc GPS ccc cccc cccc cccc cccc ccccc ccccc ccccc ccccc
%c cc cc ccc ccc cccc cccc cccc cccc ccccc ccccc ccccc ccccc
%f  0.0000000  0.000000000  0.00000000000  0.000000000000000
%f  0.0000000  0.000000000  0.00000000000  0.000000000000000
%i    0    0    0    0      0      0      0      0         0
%i    0    0    0    0      0      0      0      0         0
/* IAC                                ULTRA-RAPID PREDICTION
/* S/V CLOCKS ARE ALIGNED TO GNSS TIME                      
/* G:C1WC2W R:C1PC2P E:C1XC5X C:C2IC6I J:C1CC2S             
/* PCV:IGS20_2287 OL/AL:FES2004  NONE     YN ORB:CoN CLK:CoN
*  2023 12 03  4 30  0.00000000
PC06  -3720.000511  25904.022856  33134.690280     51.717870
PC07 -17257.021743  33246.787469 -19463.146354   -414.006165
PC08  -5609.480542  40383.176961 -10325.165125    204.388436
PC09   6783.796001  30189.790834  29323.290993   -167.537490
PC10  -9006.654388  32933.003274 -24733.184611    -39.153616
PC11  20202.026663  14648.927062 -12397.299356    286.813614
PC12   1040.535852  16052.003092 -22755.137937    838.394368
PC13  -1400.661172  41730.825142  -4496.980963    390.797285
PC14   9898.047717  12280.237204  23032.014491    904.885602
PC16  -6201.464428  24270.124065  34201.256323   -206.309853
PC19 -17095.189032  -3621.446613 -21742.425417   -958.646539
PC20  -2724.253821 -17769.814197 -21332.494897     63.335951
PC21 -14663.854936  22403.348939   7902.490658   -969.200955
PC22 -22502.678690  13389.426950  -9683.037696   -201.499776
PC23  15774.301219  -4266.439757 -22623.923718   -810.303813
PC24   7526.906393  26854.007566   -220.293973    655.468639
PC25  16896.689100  14777.738494 -16577.776951    269.386603
PC26  -4727.846827  22778.737612  15364.931507   -214.772674
PC27   8834.707854 -13902.250269  22512.328492    236.757480
PC28  23554.572287  -4042.675424  14415.461204    178.946290
PC29 -26027.373411  -9091.407313   4321.820259    209.441077
PC30 -11380.971744 -16558.800523  19354.577031     -9.570352
PC32  14569.258393 -22491.036300  -7768.407216   -539.351861
PC33  17053.909721   3665.848870  21778.448465   -942.589836
PC34  12939.986474  16396.658355 -18521.913895    316.579728
PC35 -23338.716328   5022.427349 -14429.276250    489.367609
PC36 -16357.128149 -15999.911692  16000.859778   -108.841024
PC37   5676.452068 -22287.226916 -15821.639625   -909.286293
PC38  -9910.805237  37023.764644 -17349.042538    121.600942
PC39  -9482.150828  22263.184344  34579.419469     -5.902885
PC40 -24735.294524  28154.743625 -19565.018285    -46.336713
PC41  22508.527728 -12823.110986  10420.323805   -872.256994
PC42   1319.848944  18729.947094  20689.257515   -487.746986
PC43  25669.839372   9682.713553  -5168.227359     50.752569
PC44  -8498.619254  14320.635911 -22397.873356    311.205985
PC45 -15502.047622   4771.588187  22699.942811    -51.594394
PC46  -8147.119985 -26686.536235   1246.266582   -104.488532
PE02  -9277.502603 -18511.858865  21155.777472     83.453954
PE03 -18275.984313 -10787.204154 -20647.503514    -77.535320
PE04  28978.725814  -2398.002073   5548.357733   -271.317590
PE05   2937.814280 -17594.366317 -23625.846429   4696.777192
PE07 -22924.440493  13982.606590  12458.429375    -91.017065
PE08 -28890.532594   2040.586635  -6134.556654   -186.299289
PE09  23012.384683 -13876.958153 -12407.196277   -249.281085
PE10  18501.736257  -1719.834054  23039.728631   -583.450369
PE11  11128.500766 -11636.569771  24835.220656   3246.909358
PE12  22387.015442   7391.177463  17910.681071   -802.502898
PE13 -11634.353708  10975.631077 -24895.918967    -19.638273
PE15 -22471.933976  -7878.057425 -17568.422773    -72.709930
PE18    148.545272  19772.846809 -23223.676221     51.049100
PE19  15945.376296  12031.428175  21846.154301  -1092.525176
PE21  -3979.805484  28441.258792  -7157.300945   -567.024710
PE24  15897.011835 -21888.890582 -12061.529206   -464.854276
PE25   4254.514947 -28498.772444   6802.948856     -2.531042
PE26   6337.107900  23389.849856 -16981.836557    298.539880
PE27 -15602.287118  22280.120706  11659.212687   -214.756480
PE30 -17887.229105   2621.866276  23424.060583   -710.987678
PE31  17893.726259  -3084.116677 -23373.305909    -11.035657
PE33  19709.933315  22070.627120   -499.633779      3.493018
PE34 -20032.014964 -21801.584916    -70.809314    -81.261355
PE36  -5819.193493 -23111.366370  17562.578500   -152.400393
PG01  20631.767689  12741.727239  10884.338577    163.522456
PG02  21512.747931  15027.506704   5293.424318   -520.837942
PG03  13791.781057   5056.644950  21983.274066     27.256035
PG04  24830.614802   2083.324676   9387.799287    229.283395
PG05  -8153.003694 -17742.363096 -18142.017577   -152.672197
PG06   -637.161953 -19038.445923  18538.437939    489.277220
PG07  16576.343805  -3175.435212 -20139.248101     -2.150411
PG08  19994.156590   6910.116334 -16393.550247   -155.058351
PG09  25579.207260  -7174.568428  -1288.140961     15.129469
PG10 -10783.760754  23575.358146  -4702.832774    -63.780834
PG11 -10048.648065 -22652.301175   9651.115895   -485.315584
PG12 -13330.574611  -7035.839326  21593.759053   -453.424793
PG13 -10239.906001 -13461.004615 -20734.764030    601.670774
PG14  13513.826049 -21305.132762  -7985.989877    260.219555
PG15 -20476.136200  -5404.665071 -16646.082354    103.121575
PG16   2054.547081  21897.337492 -14872.287928   -411.261611
PG17  18225.242286 -13054.304660  14781.950269    722.539839
PG18 -15072.725013   4805.438943 -21349.672298   -495.966328
PG19   9601.180824 -14616.747055  19690.373304    407.213755
PG20  -1713.094457 -25584.107628  -7226.339588    398.577626
PG21  20803.213700  17272.059649   1942.306031    142.633378
PG22  10412.578109 -24600.424026    -66.787409     72.920969
PG23 -15305.824477  14796.347729 -15747.903948    109.281625
PG24 -21568.636893 -15082.154487   4568.620770   -385.019989
PG25 -16422.175927   6770.713160  19333.032468    479.941775
PG26  -2086.621142  25770.350904  -5308.809660    212.246773
PG27   6703.023078  14006.157716 -21844.556466    -78.059804
PG28   -986.153914  18246.747444  19250.007037    -60.401613
PG29 -26266.317280   4238.244191   -789.613495   -610.008863
PG30   8745.273244 -13452.994510 -21016.083390   -461.728970
PG31   5973.605175  21622.394737  13687.199095   -226.278212
PG32 -13996.092818  15216.438623  16739.362895   -592.421973
PJ02 -32150.008662  25671.026247  14509.104581     -0.388611
PJ03 -24003.009432  18292.908093 -24780.520360    -10.447903
PJ04 -25790.010375  33521.510663   3552.126763     73.421368
PR01   5364.838550   9650.255746  22991.830494     71.232394
PR02  18726.775221  -3122.164615  17115.357976    -22.326507
PR03  21285.914589 -14056.788137   1383.840361     90.178925
PR04  12317.664868 -16742.795662 -14776.244276    213.611358
PR05  -3326.353963 -10606.378485 -22953.776079    123.209891
PR07 -21013.834791  14399.757917   -388.197682     70.482125
PR08 -11889.368241  16868.015691  15019.858923    -73.512239
PR09 -11592.567687  -7158.507335  21563.432484    156.585400
PR11  -2205.330198  23561.220302   9549.434758   -217.879540
PR12   6739.942167  22605.446200  -9665.510082     34.061636
PR13  11067.929686   9783.247014 -20811.323985    -41.924176
PR14   9032.737504 -11549.729415 -20860.614373     25.675815
PR15   1744.405288 -24098.063960  -8161.647092     84.282189
PR16  -6714.001676 -22706.069621   9453.202908     21.180968
PR17  16550.307201  -1890.496131  19316.762017     40.188152
PR18   1364.955551 -10900.680322  23039.930060    114.947438
PR19 -12937.158466 -14940.453480  16139.020023   -256.875047
PR20 -23016.758269 -10271.508974  -3780.957591   -104.537675
PR21 -16141.155150   2042.999687 -19648.090958    -58.045250
PR22   -774.775278  11674.677278 -22635.426708     96.424162
PR24  23468.030428   8963.620441   4393.573863    -34.463281
PR25 -16759.540649   1388.119928 -19177.687699     -2.359836
PR26 -12386.985262  17025.453485  14429.479656    -14.031771
EOF
